ONEWEB-0128             
1 47274U 20100S   25303.70958233  .00000414  00000+0  11151-2 0  9996
2 47274  87.8967  36.2891 0001965 106.8291 253.3053 13.12442692234642
ONEWEB-0129             
1 47275U 20100T   25303.68849188 -.00000167  00000+0 -49950-3 0  9998
2 47275  87.8974  36.2417 0002769  85.1345 275.0099 13.12443972234572
ONEWEB-0130             
1 47276U 20100U   25303.25863893  .00000384  00000+0  10310-2 0  9997
2 47276  87.8974  36.3236 0001864 102.9324 257.2013 13.12444485234481
ONEWEB-0131             
1 47277U 20100V   25303.71282250  .00000460  00000+0  12438-2 0  9999
2 47277  87.8968  36.2630 0001798 104.1365 255.9963 13.12444479234580
ONEWEB-0132             
1 47278U 20100W   25303.28458537 -.00000211  00000+0 -62092-3 0  9993
2 47278  87.8978  36.3502 0001781 103.4213 256.7115 13.12441122234420
ONEWEB-0133             
1 47279U 20100X   25303.30066849 -.00000364  00000+0 -10473-2 0  9992
2 47279  87.8962  36.3110 0001843 106.7722 253.3609 13.12444638234582
ONEWEB-0134             
1 47280U 20100Y   25303.65118516  .00000113  00000+0  27796-3 0  9998
2 47280  87.8975  36.2340 0002034 104.5147 255.6207 13.12440312234609
ONEWEB-0135             
1 47281U 20100Z   25303.69821417  .00000198  00000+0  51424-3 0  9992
2 47281  87.8972  36.2647 0002170 109.5525 250.5838 13.12446495234638
